{"type": "FeatureCollection", "features": [ {"type": "Feature", "properties": {"norad_id": 41175, "name": "GSAT0208 (GALILEO 11)", "group": "galileo", "lat": -19.176549222960325, "lon": 92.62073442282065, "alt_km": 23219.62529216225, "timestamp": "2025-12-13T20:38:51.267568+00:00", "meta": {"OBJECT_NAME": "GSAT0208 (GALILEO 11)", "OBJECT_ID": "2015-079B", "EPOCH": "2025-12-12T17:24:26.771040", "MEAN_MOTION": 1.70474307, "ECCENTRICITY": 0.00018806, "INCLINATION": 55.7111, "RA_OF_ASC_NODE": 106.3784, "ARG_OF_PERICENTER": 358.3144, "MEAN_ANOMALY": 1.6545, "EPHEMERIS_TYPE": 0, "CLASSIFICATION_TYPE": "U", "NORAD_CAT_ID": 41175, "ELEMENT_SET_NO": 999, "REV_AT_EPOCH": 6201, "BSTAR": 0, "MEAN_MOTION_DOT": 4e-08, "MEAN_MOTION_DDOT": 0}, "tle": {"line1": "1 41175U 15079B   25346.72530985  .00000004  00000+0  00000+0 0  9991", "line2": "2 41175  55.7111 106.3784 0001880 358.3144   1.6545  1.70474307 62017"}}, "geometry": {"type": "Point", "coordinates": [92.62073442282065, -19.176549222960325]}}, {"type": "Feature", "properties": {"norad_id": 41549, "name": "GSAT0211 (GALILEO 14)", "group": "galileo", "lat": -54.03100825166194, "lon": 120.35476839727784, "alt_km": 23233.89405930927, "timestamp": "2025-12-13T20:38:51.267580+00:00", "meta": {"OBJECT_NAME": "GSAT0211 (GALILEO 14)", "OBJECT_ID": "2016-030A", "EPOCH": "2025-12-11T02:09:03.353760", "MEAN_MOTION": 1.70473055, "ECCENTRICITY": 0.00041282, "INCLINATION": 55.1527, "RA_OF_ASC_NODE": 226.8689, "ARG_OF_PERICENTER": 18.4657, "MEAN_ANOMALY": 341.6286, "EPHEMERIS_TYPE": 0, "CLASSIFICATION_TYPE": "U", "NORAD_CAT_ID": 41549, "ELEMENT_SET_NO": 999, "REV_AT_EPOCH": 5946, "BSTAR": 0, "MEAN_MOTION_DOT": 9e-08, "MEAN_MOTION_DDOT": 0}, "tle": {"line1": "1 41549U 16030A   25345.08962215  .00000009  00000+0  00000+0 0  9992", "line2": "2 41549  55.1527 226.8689 0004128  18.4657 341.6286  1.70473055 59463"}}, "geometry": {"type": "Point", "coordinates": [120.35476839727784, -54.03100825166194]}}, {"type": "Feature", "properties": {"norad_id": 41550, "name": "GSAT0210 (GALILEO 13)", "group": "galileo", "lat": 53.261519493403696, "lon": -22.03161252582038, "alt_km": 23218.71742876333, "timestamp": "2025-12-13T20:38:51.267591+00:00", "meta": {"OBJECT_NAME": "GSAT0210 (GALILEO 13)", "OBJECT_ID": "2016-030B", "EPOCH": "2025-12-11T08:19:41.751264", "MEAN_MOTION": 1.70473653, "ECCENTRICITY": 0.00011945, "INCLINATION": 55.152, "RA_OF_ASC_NODE": 226.8599, "ARG_OF_PERICENTER": 242.2312, "MEAN_ANOMALY": 117.8354, "EPHEMERIS_TYPE": 0, "CLASSIFICATION_TYPE": "U", "NORAD_CAT_ID": 41550, "ELEMENT_SET_NO": 999, "REV_AT_EPOCH": 5946, "BSTAR": 0, "MEAN_MOTION_DOT": 1e-07, "MEAN_MOTION_DDOT": 0}, "tle": {"line1": "1 41550U 16030B   25345.34701101  .00000010  00000+0  00000+0 0  9990", "line2": "2 41550  55.1520 226.8599 0001194 242.2312 117.8354  1.70473653 59466"}}, "geometry": {"type": "Point", "coordinates": [-22.03161252582038, 53.261519493403696]}}, {"type": "Feature", "properties": {"norad_id": 41859, "name": "GSAT0207 (GALILEO 15)", "group": "galileo", "lat": -49.89291232225162, "lon": 51.18552248926937, "alt_km": 23222.031521394205, "timestamp": "2025-12-13T20:38:51.267603+00:00", "meta": {"OBJECT_NAME": "GSAT0207 (GALILEO 15)", "OBJECT_ID": "2016-069A", "EPOCH": "2025-12-12T05:05:06.598752", "MEAN_MOTION": 1.70474433, "ECCENTRICITY": 0.00022337, "INCLINATION": 55.3817, "RA_OF_ASC_NODE": 106.2648, "ARG_OF_PERICENTER": 322.8614, "MEAN_ANOMALY": 37.0934, "EPHEMERIS_TYPE": 0, "CLASSIFICATION_TYPE": "U", "NORAD_CAT_ID": 41859, "ELEMENT_SET_NO": 999, "REV_AT_EPOCH": 5621, "BSTAR": 0, "MEAN_MOTION_DOT": 5e-08, "MEAN_MOTION_DDOT": 0}, "tle": {"line1": "1 41859U 16069A   25346.21188193  .00000005  00000+0  00000+0 0  9995", "line2": "2 41859  55.3817 106.2648 0002233 322.8614  37.0934  1.70474433 56214"}}, "geometry": {"type": "Point", "coordinates": [51.18552248926937, -49.89291232225162]}}, {"type": "Feature", "properties": {"norad_id": 41860, "name": "GSAT0212 (GALILEO 16)", "group": "galileo", "lat": 17.563198503981916, "lon": 118.82035027261661, "alt_km": 23213.694516200183, "timestamp": "2025-12-13T20:38:51.267614+00:00", "meta": {"OBJECT_NAME": "GSAT0212 (GALILEO 16)", "OBJECT_ID": "2016-069B", "EPOCH": "2025-12-11T11:29:42.448992", "MEAN_MOTION": 1.70474595, "ECCENTRICITY": 0.00021636, "INCLINATION": 55.3791, "RA_OF_ASC_NODE": 106.2805, "ARG_OF_PERICENTER": 27.6057, "MEAN_ANOMALY": 332.3763, "EPHEMERIS_TYPE": 0, "CLASSIFICATION_TYPE": "U", "NORAD_CAT_ID": 41860, "ELEMENT_SET_NO": 999, "REV_AT_EPOCH": 5645, "BSTAR": 0, "MEAN_MOTION_DOT": 8e-08, "MEAN_MOTION_DDOT": 0}, "tle": {"line1": "1 41860U 16069B   25345.47896353  .00000008  00000+0  00000+0 0  9991", "line2": "2 41860  55.3791 106.2805 0002163  27.6057 332.3763  1.70474595 56451"}}, "geometry": {"type": "Point", "coordinates": [118.82035027261661, 17.563198503981916]}}, {"type": "Feature", "properties": {"norad_id": 41861, "name": "GSAT0213 (GALILEO 17)", "group": "galileo", "lat": 19.624380793257952, "lon": -88.0358799152536, "alt_km": 23224.03050573363, "timestamp": "2025-12-13T20:38:51.267625+00:00", "meta": {"OBJECT_NAME": "GSAT0213 (GALILEO 17)", "OBJECT_ID": "2016-069C", "EPOCH": "2025-12-11T06:14:19.190112", "MEAN_MOTION": 1.70474845, "ECCENTRICITY": 0.00023572, "INCLINATION": 55.3813, "RA_OF_ASC_NODE": 106.2942, "ARG_OF_PERICENTER": 283.5833, "MEAN_ANOMALY": 76.361, "EPHEMERIS_TYPE": 0, "CLASSIFICATION_TYPE": "U", "NORAD_CAT_ID": 41861, "ELEMENT_SET_NO": 999, "REV_AT_EPOCH": 5631, "BSTAR": 0, "MEAN_MOTION_DOT": 9e-08, "MEAN_MOTION_DDOT": 0}, "tle": {"line1": "1 41861U 16069C   25345.25994433  .00000009  00000+0  00000+0 0  9997", "line2": "2 41861  55.3813 106.2942 0002357 283.5833  76.3610  1.70474845 56318"}}, "geometry": {"type": "Point", "coordinates": [-88.0358799152536, 19.624380793257952]}}, {"type": "Feature", "properties": {"norad_id": 41862, "name": "GSAT0214 (GALILEO 18)", "group": "galileo", "lat": 48.91544545709435, "lon": 158.53817855785016, "alt_km": 23219.218339860923, "timestamp": "2025-12-13T20:38:51.267636+00:00", "meta": {"OBJECT_NAME": "GSAT0214 (GALILEO 18)", "OBJECT_ID": "2016-069D", "EPOCH": "2025-12-12T13:53:54.735936", "MEAN_MOTION": 1.70474744, "ECCENTRICITY": 0.00013694, "INCLINATION": 55.3802, "RA_OF_ASC_NODE": 106.2504, "ARG_OF_PERICENTER": 290.3791, "MEAN_ANOMALY": 69.576, "EPHEMERIS_TYPE": 0, "CLASSIFICATION_TYPE": "U", "NORAD_CAT_ID": 41862, "ELEMENT_SET_NO": 999, "REV_AT_EPOCH": 5646, "BSTAR": 0, "MEAN_MOTION_DOT": 4e-08, "MEAN_MOTION_DDOT": 0}, "tle": {"line1": "1 41862U 16069D   25346.57910574  .00000004  00000+0  00000+0 0  9993", "line2": "2 41862  55.3802 106.2504 0001369 290.3791  69.5760  1.70474744 56466"}}, "geometry": {"type": "Point", "coordinates": [158.53817855785016, 48.91544545709435]}}, {"type": "Feature", "properties": {"norad_id": 43055, "name": "GSAT0215 (GALILEO 19)", "group": "galileo", "lat": 41.90160512436753, "lon": 7.9269864932202125, "alt_km": 23219.7717630669, "timestamp": "2025-12-13T20:38:51.267648+00:00", "meta": {"OBJECT_NAME": "GSAT0215 (GALILEO 19)", "OBJECT_ID": "2017-079A", "EPOCH": "2025-12-11T21:30:24.060384", "MEAN_MOTION": 1.704739, "ECCENTRICITY": 0.00012658, "INCLINATION": 55.1303, "RA_OF_ASC_NODE": 226.661, "ARG_OF_PERICENTER": 350.6161, "MEAN_ANOMALY": 9.46, "EPHEMERIS_TYPE": 0, "CLASSIFICATION_TYPE": "U", "NORAD_CAT_ID": 43055, "ELEMENT_SET_NO": 999, "REV_AT_EPOCH": 4979, "BSTAR": 0, "MEAN_MOTION_DOT": 1.3e-07, "MEAN_MOTION_DDOT": 0}, "tle": {"line1": "1 43055U 17079A   25345.89611181  .00000013  00000+0  00000+0 0  9997", "line2": "2 43055  55.1303 226.6610 0001265 350.6161   9.4600  1.70473900 49794"}}, "geometry": {"type": "Point", "coordinates": [7.9269864932202125, 41.90160512436753]}}, {"type": "Feature", "properties": {"norad_id": 43056, "name": "GSAT0216 (GALILEO 20)", "group": "galileo", "lat": -41.142941068634244, "lon": -170.87458398453734, "alt_km": 23219.920511142616, "timestamp": "2025-12-13T20:38:51.267659+00:00", "meta": {"OBJECT_NAME": "GSAT0216 (GALILEO 20)", "OBJECT_ID": "2017-079B", "EPOCH": "2025-12-10T10:15:48.535776", "MEAN_MOTION": 1.70473969, "ECCENTRICITY": 0.000248, "INCLINATION": 55.1311, "RA_OF_ASC_NODE": 226.7014, "ARG_OF_PERICENTER": 319.9818, "MEAN_ANOMALY": 40.0811, "EPHEMERIS_TYPE": 0, "CLASSIFICATION_TYPE": "U", "NORAD_CAT_ID": 43056, "ELEMENT_SET_NO": 999, "REV_AT_EPOCH": 4978, "BSTAR": 0, "MEAN_MOTION_DOT": 9e-08, "MEAN_MOTION_DDOT": 0}, "tle": {"line1": "1 43056U 17079B   25344.42764509  .00000009  00000+0  00000+0 0  9994", "line2": "2 43056  55.1311 226.7014 0002480 319.9818  40.0811  1.70473969 49789"}}, "geometry": {"type": "Point", "coordinates": [-170.87458398453734, -41.142941068634244]}}, {"type": "Feature", "properties": {"norad_id": 43057, "name": "GSAT0217 (GALILEO 21)", "group": "galileo", "lat": 7.138286656770804, "lon": 41.60673072931949, "alt_km": 23229.747083845272, "timestamp": "2025-12-13T20:38:51.267670+00:00", "meta": {"OBJECT_NAME": "GSAT0217 (GALILEO 21)", "OBJECT_ID": "2017-079C", "EPOCH": "2025-12-11T19:42:59.251104", "MEAN_MOTION": 1.7047397, "ECCENTRICITY": 0.00027961, "INCLINATION": 55.1287, "RA_OF_ASC_NODE": 226.661, "ARG_OF_PERICENTER": 345.2118, "MEAN_ANOMALY": 14.8584, "EPHEMERIS_TYPE": 0, "CLASSIFICATION_TYPE": "U", "NORAD_CAT_ID": 43057, "ELEMENT_SET_NO": 999, "REV_AT_EPOCH": 4979, "BSTAR": 0, "MEAN_MOTION_DOT": 1.2e-07, "MEAN_MOTION_DDOT": 0}, "tle": {"line1": "1 43057U 17079C   25345.82151911  .00000012  00000+0  00000+0 0  9991", "line2": "2 43057  55.1287 226.6610 0002796 345.2118  14.8584  1.70473970 49797"}}, "geometry": {"type": "Point", "coordinates": [41.60673072931949, 7.138286656770804]}}]}